[{"OBJECT_NAME":"CUTE-1.7+APD II (CO-65)","OBJECT_ID":"2008-021C","EPOCH":"2026-02-01T22:49:01.889184","MEAN_MOTION":15.07826089,"ECCENTRICITY":0.00106606,"INCLINATION":97.8145,"RA_OF_ASC_NODE":11.8125,"ARG_OF_PERICENTER":122.6084,"MEAN_ANOMALY":237.6174,"EPHEMERIS_TYPE":0,"CLASSIFICATION_TYPE":"U","NORAD_CAT_ID":32785,"ELEMENT_SET_NO":999,"REV_AT_EPOCH":96480,"BSTAR":0.00043248023,"MEAN_MOTION_DOT":6.566e-5,"MEAN_MOTION_DDOT":0},{"OBJECT_NAME":"SEEDS II (CO-66)","OBJECT_ID":"2008-021J","EPOCH":"2026-02-01T23:23:56.016096","MEAN_MOTION":15.27457336,"ECCENTRICITY":0.00056132,"INCLINATION":97.7478,"RA_OF_ASC_NODE":24.9765,"ARG_OF_PERICENTER":76.9082,"MEAN_ANOMALY":283.2783,"EPHEMERIS_TYPE":0,"CLASSIFICATION_TYPE":"U","NORAD_CAT_ID":32791,"ELEMENT_SET_NO":999,"REV_AT_EPOCH":96661,"BSTAR":0.00064614395,"MEAN_MOTION_DOT":0.00017313,"MEAN_MOTION_DDOT":0},{"OBJECT_NAME":"YUBILEINY (RS30)","OBJECT_ID":"2008-025A","EPOCH":"2026-02-01T21:28:39.819648","MEAN_MOTION":12.43174499,"ECCENTRICITY":0.00184124,"INCLINATION":82.5004,"RA_OF_ASC_NODE":79.6034,"ARG_OF_PERICENTER":244.8579,"MEAN_ANOMALY":115.0591,"EPHEMERIS_TYPE":0,"CLASSIFICATION_TYPE":"U","NORAD_CAT_ID":32953,"ELEMENT_SET_NO":999,"REV_AT_EPOCH":80288,"BSTAR":0.00048067437,"MEAN_MOTION_DOT":7.7e-7,"MEAN_MOTION_DDOT":0},{"OBJECT_NAME":"KKS-1 (KISEKI)","OBJECT_ID":"2009-002H","EPOCH":"2026-02-01T21:37:53.645376","MEAN_MOTION":14.8267726,"ECCENTRICITY":0.00084265,"INCLINATION":98.1193,"RA_OF_ASC_NODE":313.2562,"ARG_OF_PERICENTER":19.1319,"MEAN_ANOMALY":341.0209,"EPHEMERIS_TYPE":0,"CLASSIFICATION_TYPE":"U","NORAD_CAT_ID":33499,"ELEMENT_SET_NO":999,"REV_AT_EPOCH":91614,"BSTAR":0.00021964314,"MEAN_MOTION_DOT":1.716e-5,"MEAN_MOTION_DDOT":0},{"OBJECT_NAME":"SWISSCUBE","OBJECT_ID":"2009-051B","EPOCH":"2026-02-01T16:31:21.289440","MEAN_MOTION":14.62149582,"ECCENTRICITY":0.0005552,"INCLINATION":98.4135,"RA_OF_ASC_NODE":298.1874,"ARG_OF_PERICENTER":278.0146,"MEAN_ANOMALY":82.0424,"EPHEMERIS_TYPE":0,"CLASSIFICATION_TYPE":"U","NORAD_CAT_ID":35932,"ELEMENT_SET_NO":999,"REV_AT_EPOCH":86935,"BSTAR":0.00026747253,"MEAN_MOTION_DOT":1.296e-5,"MEAN_MOTION_DDOT":0},{"OBJECT_NAME":"BEESAT-1","OBJECT_ID":"2009-051C","EPOCH":"2026-02-01T16:45:04.857696","MEAN_MOTION":14.61439428,"ECCENTRICITY":0.00042052,"INCLINATION":98.4062,"RA_OF_ASC_NODE":298.1092,"ARG_OF_PERICENTER":296.8487,"MEAN_ANOMALY":63.2283,"EPHEMERIS_TYPE":0,"CLASSIFICATION_TYPE":"U","NORAD_CAT_ID":35933,"ELEMENT_SET_NO":999,"REV_AT_EPOCH":86939,"BSTAR":0.00025681605,"MEAN_MOTION_DOT":1.223e-5,"MEAN_MOTION_DDOT":0},{"OBJECT_NAME":"ITUPSAT1","OBJECT_ID":"2009-051E","EPOCH":"2026-02-01T16:59:47.422464","MEAN_MOTION":14.60181771,"ECCENTRICITY":0.00065224,"INCLINATION":98.415,"RA_OF_ASC_NODE":297.4497,"ARG_OF_PERICENTER":306.0866,"MEAN_ANOMALY":53.9729,"EPHEMERIS_TYPE":0,"CLASSIFICATION_TYPE":"U","NORAD_CAT_ID":35935,"ELEMENT_SET_NO":999,"REV_AT_EPOCH":86896,"BSTAR":0.00024214894,"MEAN_MOTION_DOT":1.118e-5,"MEAN_MOTION_DDOT":0},{"OBJECT_NAME":"XIWANG-1 (HOPE-1)","OBJECT_ID":"2009-072B","EPOCH":"2026-02-01T21:20:33.891360","MEAN_MOTION":13.16434435,"ECCENTRICITY":0.00074101,"INCLINATION":100.3847,"RA_OF_ASC_NODE":348.9923,"ARG_OF_PERICENTER":178.5219,"MEAN_ANOMALY":181.5917,"EPHEMERIS_TYPE":0,"CLASSIFICATION_TYPE":"U","NORAD_CAT_ID":36122,"ELEMENT_SET_NO":999,"REV_AT_EPOCH":77520,"BSTAR":-0.00039847793,"MEAN_MOTION_DOT":-1.96e-6,"MEAN_MOTION_DDOT":0},{"OBJECT_NAME":"O/OREOS (USA 219)","OBJECT_ID":"2010-062C","EPOCH":"2026-02-01T22:56:45.304224","MEAN_MOTION":14.93041006,"ECCENTRICITY":0.00164723,"INCLINATION":71.9709,"RA_OF_ASC_NODE":26.5083,"ARG_OF_PERICENTER":317.5235,"MEAN_ANOMALY":42.4659,"EPHEMERIS_TYPE":0,"CLASSIFICATION_TYPE":"U","NORAD_CAT_ID":37224,"ELEMENT_SET_NO":999,"REV_AT_EPOCH":9645,"BSTAR":0.00026489035,"MEAN_MOTION_DOT":2.702e-5,"MEAN_MOTION_DDOT":0},{"OBJECT_NAME":"JUGNU","OBJECT_ID":"2011-058B","EPOCH":"2026-02-01T18:21:21.000096","MEAN_MOTION":14.13724035,"ECCENTRICITY":0.00186669,"INCLINATION":19.9617,"RA_OF_ASC_NODE":51.1361,"ARG_OF_PERICENTER":21.5479,"MEAN_ANOMALY":314.0413,"EPHEMERIS_TYPE":0,"CLASSIFICATION_TYPE":"U","NORAD_CAT_ID":37839,"ELEMENT_SET_NO":999,"REV_AT_EPOCH":73983,"BSTAR":0.00011627516,"MEAN_MOTION_DOT":4.9e-6,"MEAN_MOTION_DDOT":0},{"OBJECT_NAME":"SRMSAT","OBJECT_ID":"2011-058D","EPOCH":"2026-02-01T17:19:56.808192","MEAN_MOTION":14.1153334,"ECCENTRICITY":0.00116899,"INCLINATION":19.9706,"RA_OF_ASC_NODE":159.3934,"ARG_OF_PERICENTER":152.9457,"MEAN_ANOMALY":348.4078,"EPHEMERIS_TYPE":0,"CLASSIFICATION_TYPE":"U","NORAD_CAT_ID":37841,"ELEMENT_SET_NO":999,"REV_AT_EPOCH":73865,"BSTAR":9.5445275e-5,"MEAN_MOTION_DOT":4.41e-6,"MEAN_MOTION_DDOT":0},{"OBJECT_NAME":"STRAND-1","OBJECT_ID":"2013-009E","EPOCH":"2026-02-01T21:58:52.676544","MEAN_MOTION":14.37060413,"ECCENTRICITY":0.00075724,"INCLINATION":98.3853,"RA_OF_ASC_NODE":216.5034,"ARG_OF_PERICENTER":276.061,"MEAN_ANOMALY":83.9714,"EPHEMERIS_TYPE":0,"CLASSIFICATION_TYPE":"U","NORAD_CAT_ID":39090,"ELEMENT_SET_NO":999,"REV_AT_EPOCH":67763,"BSTAR":0.00014528948,"MEAN_MOTION_DOT":3.89e-6,"MEAN_MOTION_DDOT":0},{"OBJECT_NAME":"ZACUBE-1 (TSHEPISOSAT)","OBJECT_ID":"2013-066B","EPOCH":"2026-02-01T20:14:51.139680","MEAN_MOTION":14.99841331,"ECCENTRICITY":0.0041312,"INCLINATION":97.8153,"RA_OF_ASC_NODE":354.5016,"ARG_OF_PERICENTER":343.6684,"MEAN_ANOMALY":16.3205,"EPHEMERIS_TYPE":0,"CLASSIFICATION_TYPE":"U","NORAD_CAT_ID":39417,"ELEMENT_SET_NO":999,"REV_AT_EPOCH":66043,"BSTAR":0.00057178564,"MEAN_MOTION_DOT":7.148e-5,"MEAN_MOTION_DDOT":0},{"OBJECT_NAME":"GOMX-1","OBJECT_ID":"2013-066Q","EPOCH":"2026-02-01T22:17:23.745984","MEAN_MOTION":14.68932309,"ECCENTRICITY":0.01302266,"INCLINATION":97.658,"RA_OF_ASC_NODE":241.8616,"ARG_OF_PERICENTER":151.3136,"MEAN_ANOMALY":209.5316,"EPHEMERIS_TYPE":0,"CLASSIFICATION_TYPE":"U","NORAD_CAT_ID":39430,"ELEMENT_SET_NO":999,"REV_AT_EPOCH":65005,"BSTAR":0.00045611419,"MEAN_MOTION_DOT":2.989e-5,"MEAN_MOTION_DDOT":0},{"OBJECT_NAME":"CUBEBUG-2 (LO-74)","OBJECT_ID":"2013-066AA","EPOCH":"2026-02-01T20:02:34.973664","MEAN_MOTION":14.92519958,"ECCENTRICITY":0.00604521,"INCLINATION":97.8769,"RA_OF_ASC_NODE":341.478,"ARG_OF_PERICENTER":115.1934,"MEAN_ANOMALY":245.557,"EPHEMERIS_TYPE":0,"CLASSIFICATION_TYPE":"U","NORAD_CAT_ID":39440,"ELEMENT_SET_NO":999,"REV_AT_EPOCH":65679,"BSTAR":0.00032837244,"MEAN_MOTION_DOT":3.433e-5,"MEAN_MOTION_DDOT":0},{"OBJECT_NAME":"FUNCUBE-1 (AO-73)","OBJECT_ID":"2013-066AE","EPOCH":"2026-02-01T20:45:40.847904","MEAN_MOTION":15.07153424,"ECCENTRICITY":0.00365734,"INCLINATION":97.8123,"RA_OF_ASC_NODE":1.8306,"ARG_OF_PERICENTER":305.7942,"MEAN_ANOMALY":53.9887,"EPHEMERIS_TYPE":0,"CLASSIFICATION_TYPE":"U","NORAD_CAT_ID":39444,"ELEMENT_SET_NO":999,"REV_AT_EPOCH":65926,"BSTAR":0.00069195842,"MEAN_MOTION_DOT":0.00010504,"MEAN_MOTION_DDOT":0}]
