CUTE-1.7+APD II (CO-65) 
1 32785U 08021C   26032.95071631  .00006566  00000+0  43248-3 0  9997
2 32785  97.8145  11.8125 0010660 122.6084 237.6174 15.07826089964808
SEEDS II (CO-66)        
1 32791U 08021J   26032.97495389  .00017313  00000+0  64614-3 0  9998
2 32791  97.7478  24.9765 0005613  76.9082 283.2783 15.27457336966610
YUBILEINY (RS30)        
1 32953U 08025A   26032.89490532  .00000077  00000+0  48067-3 0  9991
2 32953  82.5004  79.6034 0018412 244.8579 115.0591 12.43174499802889
KKS-1 (KISEKI)          
1 33499U 09002H   26032.90131534  .00001716  00000+0  21964-3 0  9997
2 33499  98.1193 313.2562 0008426  19.1319 341.0209 14.82677260916140
SWISSCUBE               
1 35932U 09051B   26032.68844085  .00001296  00000+0  26747-3 0  9999
2 35932  98.4135 298.1874 0005552 278.0146  82.0424 14.62149582869351
BEESAT-1                
1 35933U 09051C   26032.69797289  .00001223  00000+0  25682-3 0  9991
2 35933  98.4062 298.1092 0004205 296.8487  63.2283 14.61439428869391
ITUPSAT1                
1 35935U 09051E   26032.70818776  .00001118  00000+0  24215-3 0  9994
2 35935  98.4150 297.4497 0006522 306.0866  53.9729 14.60181771868968
XIWANG-1 (HOPE-1)       
1 36122U 09072B   26032.88928115 -.00000196  00000+0 -39848-3 0  9999
2 36122 100.3847 348.9923 0007410 178.5219 181.5917 13.16434435775209
O/OREOS (USA 219)       
1 37224U 10062C   26032.95607991  .00002702  00000+0  26489-3 0  9998
2 37224  71.9709  26.5083 0016472 317.5235  42.4659 14.93041006 96455
JUGNU                   
1 37839U 11058B   26032.76482639  .00000490  00000+0  11628-3 0  9996
2 37839  19.9617  51.1361 0018666  21.5479 314.0413 14.13724035739833
SRMSAT                  
1 37841U 11058D   26032.72218528  .00000441  00000+0  95445-4 0  9995
2 37841  19.9706 159.3934 0011689 152.9457 348.4078 14.11533340738657
STRAND-1                
1 39090U 13009E   26032.91588746  .00000389  00000+0  14529-3 0  9998
2 39090  98.3853 216.5034 0007572 276.0610  83.9714 14.37060413677633
ZACUBE-1 (TSHEPISOSAT)  
1 39417U 13066B   26032.84364745  .00007148  00000+0  57179-3 0  9995
2 39417  97.8153 354.5016 0041312 343.6684  16.3205 14.99841331660437
GOMX-1                  
1 39430U 13066Q   26032.92874706  .00002989  00000+0  45611-3 0  9998
2 39430  97.6580 241.8616 0130226 151.3136 209.5316 14.68932309650055
CUBEBUG-2 (LO-74)       
1 39440U 13066AA  26032.83512701  .00003433  00000+0  32837-3 0  9994
2 39440  97.8769 341.4780 0060452 115.1934 245.5570 14.92519958656790
FUNCUBE-1 (AO-73)       
1 39444U 13066AE  26032.86505611  .00010504  00000+0  69196-3 0  9998
2 39444  97.8123   1.8306 0036573 305.7942  53.9887 15.07153424659268
